start=new Date('2023-04-13T00:00:00.000Z').valueOf();
sats=[{"COUNTRY_CODE":"US","EPHEMERIS_TYPE":"0","FILE":"3886414","PERIAPSIS":"457.215","SEMIMAJOR_AXIS":"6836.793","SITE":"AFETR","PERIOD":"93.764","REF_FRAME":"TEME","RA_OF_ASC_NODE":"110.2108","CENTER_NAME":"EARTH","GP_ID":"229987142","OBJECT_ID":"2020-012AG","OBJECT_NAME":"STARLINK-1211","NORAD_CAT_ID":"45208","MEAN_MOTION":"15.35762769","CLASSIFICATION_TYPE":"U","RCS_SIZE":"LARGE","TLE_LINE1":"1 45208U 20012AG  23102.91668981  .00303502  00000-0  82692-2 0  9992","ARG_OF_PERICENTER":"95.5811","LAUNCH_DATE":"2020-02-17","TIME_SYSTEM":"UTC","MEAN_MOTION_DOT":"0.00303502","APOAPSIS":"460.100","DECAY_DATE":null,"REV_AT_EPOCH":"17411","EPOCH":"2023-04-12T22:00:01.999584","MEAN_MOTION_DDOT":"0.0000000000000","ECCENTRICITY":"0.00021100","BSTAR":"0.00826920000000","TLE_LINE2":"2 45208  53.0131 110.2108 0002110  95.5811  30.5470 15.35762769174114","MEAN_ELEMENT_THEORY":"SGP4","OBJECT_TYPE":"PAYLOAD","ELEMENT_SET_NO":"999","INCLINATION":"53.0131","MEAN_ANOMALY":"30.5470"},{"RCS_SIZE":"LARGE","CLASSIFICATION_TYPE":"U","MEAN_MOTION":"15.06553866","NORAD_CAT_ID":"45210","OBJECT_ID":"2020-012AJ","OBJECT_NAME":"STARLINK-1219","GP_ID":"229977846","SITE":"AFETR","SEMIMAJOR_AXIS":"6924.877","CENTER_NAME":"EARTH","PERIOD":"95.582","REF_FRAME":"TEME","RA_OF_ASC_NODE":"116.0347","FILE":"3886349","PERIAPSIS":"545.757","COUNTRY_CODE":"US","EPHEMERIS_TYPE":"0","MEAN_ANOMALY":"270.9921","INCLINATION":"53.0519","OBJECT_TYPE":"PAYLOAD","MEAN_ELEMENT_THEORY":"SGP4","ELEMENT_SET_NO":"999","TLE_LINE2":"2 45210  53.0519 116.0347 0001422  89.1231 270.9921 15.06553866174874","BSTAR":"0.00081454000000","ECCENTRICITY":"0.00014220","MEAN_MOTION_DDOT":"0.0000000000000","DECAY_DATE":null,"EPOCH":"2023-04-12T06:17:29.662368","REV_AT_EPOCH":"17487","TIME_SYSTEM":"UTC","APOAPSIS":"547.727","MEAN_MOTION_DOT":"0.00011922","TLE_LINE1":"1 45210U 20012AJ  23102.26214887  .00011922  00000-0  81454-3 0  9993","LAUNCH_DATE":"2020-02-17","ARG_OF_PERICENTER":"89.1231"},{"MEAN_MOTION_DOT":"-0.00000181","APOAPSIS":"548.029","TIME_SYSTEM":"UTC","ARG_OF_PERICENTER":"84.8126","LAUNCH_DATE":"2020-02-17","TLE_LINE1":"1 45212U 20012AL  23102.29560930 -.00000181  00000-0  67295-5 0  9996","MEAN_MOTION_DDOT":"0.0000000000000","ECCENTRICITY":"0.00011610","REV_AT_EPOCH":"17494","EPOCH":"2023-04-12T07:05:40.643520","DECAY_DATE":null,"ELEMENT_SET_NO":"999","MEAN_ELEMENT_THEORY":"SGP4","OBJECT_TYPE":"PAYLOAD","BSTAR":"0.00000672950000","TLE_LINE2":"2 45212  53.0519 115.8868 0001161  84.8126 275.2996 15.06396275174943","MEAN_ANOMALY":"275.2996","INCLINATION":"53.0519","FILE":"3886349","PERIAPSIS":"546.421","EPHEMERIS_TYPE":"0","COUNTRY_CODE":"US","GP_ID":"229978095","RA_OF_ASC_NODE":"115.8868","PERIOD":"95.592","REF_FRAME":"TEME","CENTER_NAME":"EARTH","SEMIMAJOR_AXIS":"6925.360","SITE":"AFETR","NORAD_CAT_ID":"45212","OBJECT_NAME":"STARLINK-1231","OBJECT_ID":"2020-012AL","CLASSIFICATION_TYPE":"U","RCS_SIZE":"LARGE","MEAN_MOTION":"15.06396275"},{"LAUNCH_DATE":"2020-02-17","ARG_OF_PERICENTER":"98.0622","TLE_LINE1":"1 45213U 20012AM  23102.16897011  .00038871  00000-0  59778-3 0  9997","APOAPSIS":"408.932","MEAN_MOTION_DOT":"0.00038871","TIME_SYSTEM":"UTC","EPOCH":"2023-04-12T04:03:19.017504","REV_AT_EPOCH":"17560","DECAY_DATE":null,"MEAN_MOTION_DDOT":"0.0000000000000","ECCENTRICITY":"0.00051150","TLE_LINE2":"2 45213  53.0548   5.3074 0005115  98.0622 262.0968 15.53863021175606","BSTAR":"0.00059778000000","ELEMENT_SET_NO":"999","OBJECT_TYPE":"PAYLOAD","MEAN_ELEMENT_THEORY":"SGP4","INCLINATION":"53.0548","MEAN_ANOMALY":"262.0968","EPHEMERIS_TYPE":"0","COUNTRY_CODE":"US","PERIAPSIS":"401.992","FILE":"3886349","CENTER_NAME":"EARTH","REF_FRAME":"TEME","PERIOD":"92.672","RA_OF_ASC_NODE":"5.3074","SITE":"AFETR","SEMIMAJOR_AXIS":"6783.597","GP_ID":"229979343","OBJECT_NAME":"STARLINK-1232","OBJECT_ID":"2020-012AM","NORAD_CAT_ID":"45213","MEAN_MOTION":"15.53863021","RCS_SIZE":"LARGE","CLASSIFICATION_TYPE":"U"},{"GP_ID":"229979581","CENTER_NAME":"EARTH","PERIOD":"95.593","REF_FRAME":"TEME","RA_OF_ASC_NODE":"115.9991","SITE":"AFETR","SEMIMAJOR_AXIS":"6925.384","FILE":"3886349","PERIAPSIS":"546.260","EPHEMERIS_TYPE":"0","COUNTRY_CODE":"US","RCS_SIZE":"LARGE","CLASSIFICATION_TYPE":"U","MEAN_MOTION":"15.06388562","NORAD_CAT_ID":"45214","OBJECT_NAME":"STARLINK-1233","OBJECT_ID":"2020-012AN","ECCENTRICITY":"0.00014280","MEAN_MOTION_DDOT":"0.0000000000000","EPOCH":"2023-04-12T06:27:09.936864","REV_AT_EPOCH":"17498","DECAY_DATE":null,"MEAN_MOTION_DOT":"-0.00000999","APOAPSIS":"548.238","TIME_SYSTEM":"UTC","LAUNCH_DATE":"2020-02-17","ARG_OF_PERICENTER":"105.2942","TLE_LINE1":"1 45214U 20012AN  23102.26886501 -.00000999  00000-0 -48206-4 0  9998","MEAN_ANOMALY":"254.8204","INCLINATION":"53.0527","ELEMENT_SET_NO":"999","OBJECT_TYPE":"PAYLOAD","MEAN_ELEMENT_THEORY":"SGP4","TLE_LINE2":"2 45214  53.0527 115.9991 0001428 105.2942 254.8204 15.06388562174981","BSTAR":"-0.00004820600000"},{"COUNTRY_CODE":"US","EPHEMERIS_TYPE":"0","FILE":"3886349","PERIAPSIS":"546.158","SITE":"AFETR","SEMIMAJOR_AXIS":"6925.380","CENTER_NAME":"EARTH","REF_FRAME":"TEME","PERIOD":"95.593","RA_OF_ASC_NODE":"116.0204","GP_ID":"229978345","OBJECT_ID":"2020-012AP","OBJECT_NAME":"STARLINK-1245","NORAD_CAT_ID":"45215","MEAN_MOTION":"15.06389723","CLASSIFICATION_TYPE":"U","RCS_SIZE":"LARGE","TLE_LINE1":"1 45215U 20012AP  23102.26612641 -.00001978  00000-0 -11394-3 0  9996","LAUNCH_DATE":"2020-02-17","ARG_OF_PERICENTER":"102.2609","TIME_SYSTEM":"UTC","APOAPSIS":"548.332","MEAN_MOTION_DOT":"-0.00001978","DECAY_DATE":null,"EPOCH":"2023-04-12T06:23:13.321824","REV_AT_EPOCH":"17492","ECCENTRICITY":"0.00015700","MEAN_MOTION_DDOT":"0.0000000000000","TLE_LINE2":"2 45215  53.0531 116.0204 0001570 102.2609 257.8555 15.06389723174927","BSTAR":"-0.00011394000000","OBJECT_TYPE":"PAYLOAD","MEAN_ELEMENT_THEORY":"SGP4","ELEMENT_SET_NO":"999","INCLINATION":"53.0531","MEAN_ANOMALY":"257.8555"},{"APOAPSIS":"548.240","MEAN_MOTION_DOT":"-0.00001170","TIME_SYSTEM":"UTC","LAUNCH_DATE":"2020-02-17","ARG_OF_PERICENTER":"98.6607","TLE_LINE1":"1 45217U 20012AR  23102.50572076 -.00001170  00000-0 -59694-4 0  9992","MEAN_MOTION_DDOT":"0.0000000000000","ECCENTRICITY":"0.00014270","EPOCH":"2023-04-12T12:08:14.273664","REV_AT_EPOCH":"17502","DECAY_DATE":null,"ELEMENT_SET_NO":"999","OBJECT_TYPE":"PAYLOAD","MEAN_ELEMENT_THEORY":"SGP4","TLE_LINE2":"2 45217  53.0530 114.9427 0001427  98.6607 261.4543 15.06387660175027","BSTAR":"-0.00005969400000","MEAN_ANOMALY":"261.4543","INCLINATION":"53.0530","PERIAPSIS":"546.263","FILE":"3886349","EPHEMERIS_TYPE":"0","COUNTRY_CODE":"US","GP_ID":"229978595","CENTER_NAME":"EARTH","PERIOD":"95.593","REF_FRAME":"TEME","RA_OF_ASC_NODE":"114.9427","SITE":"AFETR","SEMIMAJOR_AXIS":"6925.386","NORAD_CAT_ID":"45217","OBJECT_NAME":"STARLINK-1271","OBJECT_ID":"2020-012AR","CLASSIFICATION_TYPE":"U","RCS_SIZE":"LARGE","MEAN_MOTION":"15.06387660"},{"INCLINATION":"53.0566","MEAN_ANOMALY":"272.5805","TLE_LINE2":"2 45219  53.0566  95.8534 0001284  87.5331 272.5805 15.06391548175288","BSTAR":"0.00003525700000","OBJECT_TYPE":"PAYLOAD","MEAN_ELEMENT_THEORY":"SGP4","ELEMENT_SET_NO":"999","DECAY_DATE":null,"EPOCH":"2023-04-12T07:18:58.029984","REV_AT_EPOCH":"17528","MEAN_MOTION_DDOT":"0.0000000000000","ECCENTRICITY":"0.00012840","TLE_LINE1":"1 45219U 20012AT  23102.30483831  .00000244  00000-0  35257-4 0  9990","LAUNCH_DATE":"2020-02-17","ARG_OF_PERICENTER":"87.5331","TIME_SYSTEM":"UTC","APOAPSIS":"548.129","MEAN_MOTION_DOT":"0.00000244","MEAN_MOTION":"15.06391548","CLASSIFICATION_TYPE":"U","RCS_SIZE":"LARGE","OBJECT_ID":"2020-012AT","OBJECT_NAME":"STARLINK-1187","NORAD_CAT_ID":"45219","SITE":"AFETR","SEMIMAJOR_AXIS":"6925.374","CENTER_NAME":"EARTH","PERIOD":"95.593","RA_OF_ASC_NODE":"95.8534","REF_FRAME":"TEME","GP_ID":"229978843","COUNTRY_CODE":"US","EPHEMERIS_TYPE":"0","PERIAPSIS":"546.350","FILE":"3886349"},{"OBJECT_NAME":"STARLINK-1189","OBJECT_ID":"2020-012AV","NORAD_CAT_ID":"45221","MEAN_MOTION":"15.06392518","RCS_SIZE":"LARGE","CLASSIFICATION_TYPE":"U","EPHEMERIS_TYPE":"0","COUNTRY_CODE":"US","PERIAPSIS":"546.364","FILE":"3886436","CENTER_NAME":"EARTH","RA_OF_ASC_NODE":"94.0445","PERIOD":"95.593","REF_FRAME":"TEME","SITE":"AFETR","SEMIMAJOR_AXIS":"6925.371","GP_ID":"229987944","TLE_LINE2":"2 45221  53.0533  94.0445 0001260  92.6958 267.4175 15.06392518174395","BSTAR":"0.00040823000000","ELEMENT_SET_NO":"999","OBJECT_TYPE":"PAYLOAD","MEAN_ELEMENT_THEORY":"SGP4","INCLINATION":"53.0533","MEAN_ANOMALY":"267.4175","LAUNCH_DATE":"2020-02-17","ARG_OF_PERICENTER":"92.6958","TLE_LINE1":"1 45221U 20012AV  23102.70660777  .00005803  00000-0  40823-3 0  9993","MEAN_MOTION_DOT":"0.00005803","APOAPSIS":"548.109","TIME_SYSTEM":"UTC","EPOCH":"2023-04-12T16:57:30.911328","REV_AT_EPOCH":"17439","DECAY_DATE":null,"ECCENTRICITY":"0.00012600","MEAN_MOTION_DDOT":"0.0000000000000"},{"MEAN_MOTION_DOT":"0.00000840","APOAPSIS":"548.179","TIME_SYSTEM":"UTC","LAUNCH_DATE":"2020-02-17","ARG_OF_PERICENTER":"89.2120","TLE_LINE1":"1 45222U 20012AW  23102.44859010  .00000840  00000-0  75273-4 0  9999","ECCENTRICITY":"0.00013380","MEAN_MOTION_DDOT":"0.0000000000000","EPOCH":"2023-04-12T10:45:58.184640","REV_AT_EPOCH":"17529","DECAY_DATE":null,"ELEMENT_SET_NO":"999","OBJECT_TYPE":"PAYLOAD","MEAN_ELEMENT_THEORY":"SGP4","TLE_LINE2":"2 45222  53.0532  95.1999 0001338  89.2120 270.9023 15.06387259175297","BSTAR":"0.00007527300000","MEAN_ANOMALY":"270.9023","INCLINATION":"53.0532","FILE":"3886349","PERIAPSIS":"546.326","EPHEMERIS_TYPE":"0","COUNTRY_CODE":"US","GP_ID":"229977847","CENTER_NAME":"EARTH","REF_FRAME":"TEME","PERIOD":"95.593","RA_OF_ASC_NODE":"95.1999","SITE":"AFETR","SEMIMAJOR_AXIS":"6925.388","NORAD_CAT_ID":"45222","OBJECT_NAME":"STARLINK-1191","OBJECT_ID":"2020-012AW","RCS_SIZE":"LARGE","CLASSIFICATION_TYPE":"U","MEAN_MOTION":"15.06387259"}];
